NORAD_CAT_ID,OBJECT_NAME,OBJECT_TYPE,EPOCH,MEAN_MOTION,ECCENTRICITY,INCLINATION,RA_OF_ASC_NODE,ARG_OF_PERICENTER,MEAN_ANOMALY,BSTAR,MEAN_MOTION_DOT,MEAN_MOTION_DDOT,TLE_LINE0,TLE_LINE1,TLE_LINE2,SEMIMAJOR_AXIS,PERIOD,APOGEE,PERIGEE,DECAYED
49146.0,STARLINK-3116,PAYLOAD,2021-09-20 14:00:01,15.88006943,0.0040856,70.0004,108.9922,159.2947,93.9328,-0.0042578999999999,-0.01238764,0.00043175,0 STARLINK-3116,1 49146U 21082S   21263.58334491 -.01238764  43175-3 -42579-2 0  9993,2 49146  70.0004 108.9922 0040856 159.2947  93.9328 15.88006943  2288,6686.0080000000025,90.68,335.19,280.557,0.0
49146.0,STARLINK-3116,PAYLOAD,2021-09-20 20:00:01,15.87396017,0.0037922,70.0002,108.2707,159.4486,82.26899999999998,-0.0043868,-0.01225289,0.00042068,0 STARLINK-3116,1 49146U 21082S   21263.83334491 -.01225289  42068-3 -43868-2 0  9991,2 49146  70.0002 108.2707 0037922 159.4486  82.2690 15.87396017  2310,6687.724,90.715,334.95,284.2270000000001,0.0
49146.0,STARLINK-3116,PAYLOAD,2021-09-20 22:00:00,15.87215942,0.0036969,70.0001,108.0303,159.9488,197.8028,-0.0045962,-0.01267964,0.00044738,0 STARLINK-3116,1 49146U 21082S   21263.91667824 -.01267964  44738-3 -45962-2 0  9998,2 49146  70.0001 108.0303 0036969 159.9488 197.8028 15.87215942  1387,6688.229,90.725,334.82,285.369,0.0
49146.0,STARLINK-3116,PAYLOAD,2021-09-21 04:00:00,15.86614147,0.0035239,69.9998,107.3095,160.5303,184.9841,-0.004773,-0.01271004,0.00044685,0 STARLINK-3116,1 49146U 21082S   21264.16667824 -.01271004  44685-3 -47730-2 0  9992,2 49146  69.9998 107.3095 0035239 160.5303 184.9841 15.86614147  2371,6689.920999999999,90.759,335.36,288.211,0.0
49146.0,STARLINK-3116,PAYLOAD,2021-09-21 12:00:00,15.85783911,0.003122,70.0001,106.3495,161.3294,287.0343,-0.0048214,-0.01219218,0.00041064,0 STARLINK-3116,1 49146U 21082S   21264.50001157 -.01219218  41064-3 -48214-2 0  9996,2 49146  70.0001 106.3495 0031220 161.3294 287.0343 15.85783911  2429,6692.255,90.807,335.014,293.2270000000001,0.0
49146.0,STARLINK-3116,PAYLOAD,2021-09-21 14:00:01,15.85579655,0.0030553,70.0003,106.1096,161.505,42.4845,-0.0048398,-0.01209731,0.00040399,0 STARLINK-3116,1 49146U 21082S   21264.58335648 -.01209731  40399-3 -48398-2 0  9991,2 49146  70.0003 106.1096 0030553 161.5050  42.4845 15.85579655  1490,6692.83,90.819,335.144,294.246,0.0
49146.0,STARLINK-3116,PAYLOAD,2021-09-21 20:00:01,15.849706,0.0028114,69.9999,105.3907,162.3076,28.0005,-0.0049758999999999,-0.01200523,0.00039611,0 STARLINK-3116,1 49146U 21082S   21264.83335648 -.01200523  39611-3 -49759-2 0  9996,2 49146  69.9999 105.3907 0028114 162.3076  28.0005 15.84970600  2471,6694.545,90.853,335.231,297.588,0.0
49146.0,STARLINK-3116,PAYLOAD,2021-09-21 22:00:00,15.84801433,0.002734,70.0001,105.1512,163.1574,142.3915,-0.0053045,-0.01266599,0.00043666,0 STARLINK-3116,1 49146U 21082S   21264.91667824 -.01266599  43666-3 -53045-2 0  9992,2 49146  70.0001 105.1512 0027340 163.1574 142.3915 15.84801433  1544,6695.021,90.863,335.19,298.582,0.0
49146.0,STARLINK-3116,PAYLOAD,2021-09-22 04:00:01,15.84196485,0.002565,69.9998,104.4328,164.5433,126.6646,-0.0054653,-0.01263075,0.00043204,0 STARLINK-3116,1 49146U 21082S   21265.16668981 -.01263075  43204-3 -54653-2 0  9995,2 49146  69.9998 104.4328 0025650 164.5433 126.6646 15.84196485  2534,6696.725,90.898,335.767,301.413,0.0
49146.0,STARLINK-3116,PAYLOAD,2021-09-22 14:00:01,15.83161253,0.002086,70.0002,103.2373,167.3805,338.5526,-0.0055004,-0.01074508,0.0,0 STARLINK-3116,1 49146U 21082S   21265.58334491 -.01074508  00000-0 -55004-2 0  9993,2 49146  70.0002 103.2373 0020860 167.3805 338.5526 15.83161253  1659,6699.644,90.957,335.485,307.534,0.0
49146.0,STARLINK-3116,PAYLOAD,2021-09-22 20:00:01,15.82559416,0.0018598,70.0,102.5209,170.3534,319.7248,-0.0057034,-0.01077496,0.0,0 STARLINK-3116,1 49146U 21082S   21265.83334491 -.01077496  00000-0 -57034-2 0  9995,2 49146  70.0000 102.5209 0018598 170.3534 319.7248 15.82559416  2637,6701.343000000003,90.992,335.671,310.745,0.0
49146.0,STARLINK-3116,PAYLOAD,2021-09-23 12:00:00,15.80981394,0.0013093,70.0002,100.6134,182.6277,142.507,-0.0065074,-0.01124936,0.0,0 STARLINK-3116,1 49146U 21082S   21266.50001157 -.01124936  00000-0 -65074-2 0  9995,2 49146  70.0002 100.6134 0013093 182.6277 142.5070 15.80981394  2749,6705.801,91.083,336.446,318.886,0.0
49146.0,STARLINK-3116,PAYLOAD,2021-09-23 14:00:01,15.80760704,0.0012255,70.0003,100.3752,185.314,253.9397,-0.006369,-0.01092665,0.0,0 STARLINK-3116,1 49146U 21082S   21266.58334491 -.01092665  00000-0 -63690-2 0  9998,2 49146  70.0003 100.3752 0012255 185.3140 253.9397 15.80760704  1817,6706.425,91.095,336.509,320.072,0.0
49146.0,STARLINK-3116,PAYLOAD,2021-09-23 22:00:01,15.79945439,0.001013,70.0001,99.4234,196.0684,339.0996,-0.0064941,-0.0107259,0.0,0 STARLINK-3116,1 49146U 21082S   21266.91668981 -.01072590  00000-0 -64941-2 0  9994,2 49146  70.0001  99.4234 0010130 196.0684 339.0996 15.79945439  1864,6708.732,91.142,337.39300000000014,323.801,0.0
49146.0,STARLINK-3116,PAYLOAD,2021-09-24 04:00:00,15.79344815,0.0009272,69.9997,98.7103,206.9711,309.3813,-0.0067155,-0.01077333,0.0,0 STARLINK-3116,1 49146U 21082S   21267.16667824 -.01077333  00000-0 -67155-2 0  9997,2 49146  69.9997  98.7103 0009272 206.9711 309.3813 15.79344815  2847,6710.433000000001,91.177,338.52,326.076,0.0
49146.0,STARLINK-3116,PAYLOAD,2021-09-24 14:00:01,15.7835875,0.0008359999999999,70.0002,97.5233,225.8479,138.0427,-0.0072553,-0.01127631,0.0,0 STARLINK-3116,1 49146U 21082S   21267.58334491 -.01127631  00000-0 -72553-2 0  9999,2 49146  70.0002  97.5233 0008360 225.8479 138.0427 15.78358750  1979,6713.227,91.234,340.705,329.48,0.0
49146.0,STARLINK-3116,PAYLOAD,2021-09-24 20:00:01,15.77750684,0.0008189,69.9999,96.812,229.4996,114.1962,-0.0074029,-0.01120099,0.0,0 STARLINK-3116,1 49146U 21082S   21267.83334491 -.01120099  00000-0 -74029-2 0  9998,2 49146  69.9999  96.8120 0008189 229.4996 114.1962 15.77750684  2950,6714.9519999999975,91.269,342.316,331.3180000000001,0.0
49146.0,STARLINK-3116,PAYLOAD,2021-09-24 22:00:00,15.77546753,0.0007965,70.0,96.5748,230.4818,226.3622,-0.0074348999999999,-0.0111502,0.0,0 STARLINK-3116,1 49146U 21082S   21267.91667824 -.01115020  00000-0 -74349-2 0  9999,2 49146  70.0000  96.5748 0007965 230.4818 226.3622 15.77546753  2022,6715.531,91.281,342.745,332.047,0.0
49146.0,STARLINK-3116,PAYLOAD,2021-09-25 06:00:02,15.76744458,0.0008592,69.9998,95.6275,229.0191,319.8759,-0.0077328999999999,-0.01119031,0.0,0 STARLINK-3116,1 49146U 21082S   21268.25002315 -.01119031  00000-0 -77329-2 0  9992,2 49146  69.9998  95.6275 0008592 229.0191 319.8759 15.76744458  2070,6717.809,91.327,345.446,333.902,0.0
49146.0,STARLINK-3116,PAYLOAD,2021-09-25 14:00:01,15.75940187,0.0007878999999999,70.0003,94.6815,227.9542,51.8959,-0.0080076,-0.01117594,0.0,0 STARLINK-3116,1 49146U 21082S   21268.58334491 -.01117594  00000-0 -80076-2 0  9996,2 49146  70.0003  94.6815 0007879 227.9542  51.8959 15.75940187  3075,6720.094,91.374,347.254,336.664,0.0
49146.0,STARLINK-3116,PAYLOAD,2021-09-25 22:00:00,15.75131727,0.0004899,70.0001,93.7365,271.8215,98.0862,-0.0082522,-0.01109804,0.0,0 STARLINK-3116,1 49146U 21082S   21268.91667824 -.01109804  00000-0 -82522-2 0  9995,2 49146  70.0001  93.7365 0004899 271.8215  98.0862 15.75131727  3121,6722.393,91.421,347.552,340.965,0.0
49146.0,STARLINK-3116,PAYLOAD,2021-09-26 00:00:00,15.74935867,0.0004334,69.9999,93.5003,273.6781,208.5912,-0.0083999,-0.01118598,0.0,0 STARLINK-3116,1 49146U 21082S   21269.00001157 -.01118598  00000-0 -83999-2 0  9996,2 49146  69.9999  93.5003 0004334 273.6781 208.5912 15.74935867  2199,6722.951,91.432,347.72900000000016,341.902,0.0
49146.0,STARLINK-3116,PAYLOAD,2021-09-26 12:00:00,15.73724785,0.0003701,70.0002,92.0854,279.5113,155.6732,-0.0087888999999999,-0.01110809,0.0,0 STARLINK-3116,1 49146U 21082S   21269.50001157 -.01110809  00000-0 -87889-2 0  9990,2 49146  70.0002  92.0854 0003701 279.5113 155.6732 15.73724785  3216,6726.399,91.503,350.754,345.775,0.0
49146.0,STARLINK-3116,PAYLOAD,2021-09-26 14:00:01,15.73523874,0.0003492,70.0003,91.8498,279.9988,267.1268,-0.0088651,-0.01110642,0.0,0 STARLINK-3116,1 49146U 21082S   21269.58334491 -.01110642  00000-0 -88651-2 0  9991,2 49146  70.0003  91.8498 0003492 279.9988 267.1268 15.73523874  2295,6726.972,91.514,351.186,346.48800000000006,0.0
49146.0,STARLINK-3116,PAYLOAD,2021-09-26 22:00:01,15.72719665,0.0003488,70.0,90.9082,275.0537,359.2993,-0.0091839,-0.01111378,0.0,0 STARLINK-3116,1 49146U 21082S   21269.91668981 -.01111378  00000-0 -91839-2 0  9991,2 49146  70.0000  90.9082 0003488 275.0537 359.2993 15.72719665  2341,6729.265,91.561,353.477,348.783,0.0
49146.0,STARLINK-3116,PAYLOAD,2021-09-27 06:00:02,15.71914724,0.0003673,69.9999,89.9676,265.5648,94.9856,-0.0095009,-0.01111051,0.0,0 STARLINK-3116,1 49146U 21082S   21270.25002315 -.01111051  00000-0 -95009-2 0  9994,2 49146  69.9999  89.9676 0003673 265.5648  94.9856 15.71914724  3338,6731.562,91.608,355.9,350.955,0.0
49146.0,STARLINK-3116,PAYLOAD,2021-09-27 14:00:01,15.71111991,0.0003662,70.0002,89.0283,278.5187,167.19799999999995,-0.0098567,-0.01113774,0.0,0 STARLINK-3116,1 49146U 21082S   21270.58334491 -.01113774  00000-0 -98567-2 0  9999,2 49146  70.0002  89.0283 0003662 278.5187 167.1980 15.71111991  2459,6733.855,91.655,358.186,353.254,0.0
49146.0,STARLINK-3116,PAYLOAD,2021-09-27 22:00:01,15.70090239,0.0003566,70.0001,88.0899,279.6627,250.4249,-0.0042158,-0.00482446,0.0,0 STARLINK-3116,1 49146U 21082S   21270.91668981 -.00482446  00000-0 -42158-2 0  9999,2 49146  70.0001  88.0899 0003566 279.6627 250.4249 15.70090239  2504,6736.776,91.714,361.043,356.23900000000015,0.0
49146.0,STARLINK-3116,PAYLOAD,2021-09-28 06:00:02,15.697494699999998,0.0003376,70.0001,87.1527,269.8398,343.5638,-4.218600000000001e-05,-5.245e-05,0.0,0 STARLINK-3116,1 49146U 21082S   21271.25002315 -.00005245  00000-0 -42186-4 0  9991,2 49146  70.0001  87.1527 0003376 269.8398 343.5638 15.69749470  3498,6737.751,91.734,361.89,357.341,0.0
